CUBEBUG-2 (LO-74)       
1 39440U 13066AA  26196.86496091  .00002083  00000+0  19551-3 0  9999
2 39440  97.8915 145.9709 0055631 293.0759  66.4601 14.93969667681278
FUNCUBE-1 (AO-73)       
1 39444U 13066AE  26196.88912522  .00003677  00000+0  22787-3 0  9992
2 39444  97.8290 168.9436 0037990 105.4335 255.1095 15.09822727683992
UWE-3                   
1 39446U 13066AG  26196.82148462  .00001951  00000+0  17026-3 0  9995
2 39446  97.8715 153.0945 0047549 222.4036 137.3508 14.97201399681861
UNISAT-6                
1 40012U 14033C   26196.37043889  .00001087  00000+0  12145-3 0  9995
2 40012  97.7908 348.5932 0044173 337.1832  22.7421 14.88366752650356
DUCHIFAT-1              
1 40021U 14033M   26196.10651526  .00095423  00000+0  75655-3 0  9991
2 40021  98.0418 259.3300 0002759 247.0602 113.0368 15.70998071660129
QB50P1                  
1 40025U 14033R   26196.55167112  .00004446  00000+0  21798-3 0  9991
2 40025  98.0962 209.6951 0010355 123.5579 236.6643 15.18670090657336
LILACSAT-2              
1 40908U 15049K   26196.83624764  .00012542  00000+0  20702-3 0  9991
2 40908  97.4622 234.7802 0008444 139.6571 220.5310 15.52374891600195
FOX-1A (AO-85)          
1 40967U 15058D   26196.38863535  .00001629  00000+0  15413-3 0  9994
2 40967  64.7725 191.3328 0132381  45.7352 315.4532 14.91088896117770
CAS-2T & KS-1Q          
1 41847U 16066G   26196.77446231  .00000524  00000+0  81899-4 0  9990
2 41847  98.3814 272.1835 0342203  43.0069 319.7332 14.44771111508926
RADFXSAT (FOX-1B)       
1 43017U 17073E   26196.31745535  .00004345  00000+0  19078-3 0  9993
2 43017  97.4665  62.9591 0148269 231.0626 127.7313 15.13061529469642
DIWATA-2B               
1 43678U 18084H   26196.84444690  .00001091  00000+0  91544-4 0  9999
2 43678  98.1211  34.3078 0012801  82.4503 277.8174 15.00564951420515
ES'HAIL 2               
1 43700U 18090A   26196.77604286  .00000134  00000+0  00000+0 0  9992
2 43700   0.0172  48.3163 0002230 110.7315  79.7199  1.00271226 27963
FOX-1CLIFF (AO-95)      
1 43770U 18099N   26196.12445782  .00006428  00000+0  24321-3 0  9999
2 43770  97.4371 256.2762 0007249 240.1261 119.9258 15.27272459417485
ITASAT                  
1 43786U 18099AE  26196.14602740  .00003624  00000+0  17427-3 0  9991
2 43786  97.4013 247.1033 0010868 250.6070 109.3990 15.19381680417158
JY1SAT (JO-97)          
1 43803U 18099AX  26196.73027738  .00011010  00000+0  33119-3 0  9998
2 43803  97.4114 259.6785 0006910 156.5802 203.5757 15.34531069418000
UWE-4                   
1 43880U 18111E   26196.35233479  .00020350  00000+0  39289-3 0  9998
2 43880  97.5850 126.0767 0006288 193.5981 166.5100 15.47824446415136
TIANYAN 01              
1 44881U 19093C   26196.85409093 -.00000151  00000+0 -11010-4 0  9994
2 44881  97.7526 268.3858 0013571 359.4719   0.6480 14.86559841355673
RS-44 & BREEZE-KM R/B   
1 44909U 19096E   26196.77564657  .00000008  00000+0 -18031-4 0  9997
2 44909  82.5242 320.7086 0218527  77.6409 284.9058 12.79748935306005
SALSAT                  
1 46495U 20068K   26196.46428795  .00004051  00000+0  14153-3 0  9999
2 46495  97.8855 201.2595 0009213 191.9024 168.1999 15.30174422319686
XW-3 (CAS-9)            
1 50466U 21131B   26196.86330696  .00000270  00000+0  96878-4 0  9994
2 50466  98.4993 289.0983 0004556  28.6409 331.5029 14.41382051239245
GREENCUBE (IO-117)      
1 53109U 22080E   26196.19885268 -.00000003  00000+0  00000+0 0  9993
2 53109  70.1411 288.5050 0009069 283.3508  76.6141  6.42583355 93867
UMKA 1 (RS40S)          
1 57172U 23091G   26196.77792997  .00003571  00000+0  16330-3 0  9999
2 57172  97.5035 255.3684 0012992  27.6908 332.5017 15.21125695168352
CUBESX-HSE 3 (RS42S)    
1 57178U 23091N   26196.85563639  .00007433  00000+0  24366-3 0  9992
2 57178  97.5078 262.8167 0009590 359.6946   0.4288 15.31893998168815
MONITOR-3 (RS58S)       
1 57180U 23091Q   26196.74828828  .00005818  00000+0  21299-3 0  9994
2 57180  97.5069 260.4123 0010937   7.7757 352.3650 15.28379550168655
MONITOR-4 (RS57S)       
1 57182U 23091S   26196.85668779  .00005912  00000+0  21582-3 0  9995
2 57182  97.5062 260.4943 0010900   7.8165 352.3242 15.28467026168679
MONITOR-2 (RS39S)       
1 57184U 23091U   26196.76978038  .00002646  00000+0  12902-3 0  9996
2 57184  97.5056 254.8699 0011348  22.2093 337.9631 15.19157631168294
SVYATOBOR 1 (RS60S)     
1 57187U 23091X   26196.82970772  .00004672  00000+0  17862-3 0  9994
2 57187  97.5075 260.8118 0008690   2.2489 357.8787 15.27069044168689
VIZARD-METEO (RS38S)    
1 57189U 23091Z   26196.80307741  .00009488  00000+0  26527-3 0  9992
2 57189  97.5080 266.8775 0005601 337.1953  22.9041 15.36885961169089
POLYTECH-UNIVERSE 3 (R*)
1 57191U 23091AB  26196.79308260  .00002526  00000+0  12237-3 0  9999
2 57191  97.5033 254.3972 0016034  35.7622 324.4683 15.19369759168294
UTMN 2 (RS27S)          
1 57203U 23091AP  26196.79249470  .00007045  00000+0  22544-3 0  9993
2 57203  97.5074 264.4212 0006659 348.0075  12.1007 15.32710177168926
